{
  "type": "FeatureCollection",
  "features": [
    {
      "type": "Feature",
      "properties": {
        "norad_id": 38867,
        "name": "INTELSAT 23 (IS-23)",
        "group": "intelsat",
        "lat": -0.023144273082186848,
        "lon": -85.86039887488022,
        "alt_km": 35782.09870078449,
        "timestamp": "2025-12-06T16:45:42.394330+00:00",
        "meta_object_name": "INTELSAT 23 (IS-23)",
        "meta_object_id": "2012-057A",
        "meta_epoch": "2025-12-06T06:33:52.884000",
        "meta_mean_motion": 1.00268386,
        "meta_eccentricity": 0.00017462,
        "meta_inclination": 0.0472,
        "meta_ra_of_asc_node": 98.8461,
        "meta_arg_of_pericenter": 127.5347,
        "meta_mean_anomaly": 254.3852,
        "meta_ephemeris_type": 0,
        "meta_classification_type": "U",
        "meta_norad_cat_id": 38867,
        "meta_element_set_no": 999,
        "meta_rev_at_epoch": 4802,
        "meta_bstar": 0,
        "meta_mean_motion_dot": -2.77e-06,
        "meta_mean_motion_ddot": 0,
        "tle_line1": "1 38867U 12057A   25340.27352875 -.00000277  00000+0  00000+0 0  9995",
        "tle_line2": "2 38867   0.0472  98.8461 0001746 127.5347 254.3852  1.00268386 48027"
      },
      "geometry": {
        "type": "Point",
        "coordinates": [
          -85.86039887488022,
          -0.023144273082186848
        ]
      }
    },
    {
      "type": "Feature",
      "properties": {
        "norad_id": 39360,
        "name": "FM-6",
        "group": "intelsat",
        "lat": 0.003246402006208928,
        "lon": -148.97453328820822,
        "alt_km": 35776.51204568846,
        "timestamp": "2025-12-06T16:45:42.394342+00:00",
        "meta_object_name": "FM-6",
        "meta_object_id": "2013-058A",
        "meta_epoch": "2025-12-06T04:26:31.851168",
        "meta_mean_motion": 1.00271891,
        "meta_eccentricity": 0.00028794,
        "meta_inclination": 0.0115,
        "meta_ra_of_asc_node": 104.5066,
        "meta_arg_of_pericenter": 68.4513,
        "meta_mean_anomaly": 212.7582,
        "meta_ephemeris_type": 0,
        "meta_classification_type": "U",
        "meta_norad_cat_id": 39360,
        "meta_element_set_no": 999,
        "meta_rev_at_epoch": 4413,
        "meta_bstar": 0,
        "meta_mean_motion_dot": -9e-08,
        "meta_mean_motion_ddot": 0,
        "tle_line1": "1 39360U 13058A   25340.18509087 -.00000009  00000+0  00000+0 0  9998",
        "tle_line2": "2 39360   0.0115 104.5066 0002879  68.4513 212.7582  1.00271891 44133"
      },
      "geometry": {
        "type": "Point",
        "coordinates": [
          -148.97453328820822,
          0.003246402006208928
        ]
      }
    },
    {
      "type": "Feature",
      "properties": {
        "norad_id": 40271,
        "name": "INTELSAT 30 (IS-30)",
        "group": "intelsat",
        "lat": -0.026779888001267557,
        "lon": -127.90274169098238,
        "alt_km": 35790.46794143512,
        "timestamp": "2025-12-06T16:45:42.394354+00:00",
        "meta_object_name": "INTELSAT 30 (IS-30)",
        "meta_object_id": "2014-062A",
        "meta_epoch": "2025-12-06T00:08:38.725728",
        "meta_mean_motion": 1.00269726,
        "meta_eccentricity": 0.00010927,
        "meta_inclination": 0.015,
        "meta_ra_of_asc_node": 19.3668,
        "meta_arg_of_pericenter": 68.0751,
        "meta_mean_anomaly": 254.7165,
        "meta_ephemeris_type": 0,
        "meta_classification_type": "U",
        "meta_norad_cat_id": 40271,
        "meta_element_set_no": 999,
        "meta_rev_at_epoch": 484,
        "meta_bstar": 0,
        "meta_mean_motion_dot": -1.42e-06,
        "meta_mean_motion_ddot": 0,
        "tle_line1": "1 40271U 14062A   25340.00600377 -.00000142  00000+0  00000+0 0  9990",
        "tle_line2": "2 40271   0.0150  19.3668 0001092  68.0751 254.7165  1.00269726  4843"
      },
      "geometry": {
        "type": "Point",
        "coordinates": [
          -127.90274169098238,
          -0.026779888001267557
        ]
      }
    },
    {
      "type": "Feature",
      "properties": {
        "norad_id": 40333,
        "name": "DIRECTV 14",
        "group": "intelsat",
        "lat": -0.041381199411336014,
        "lon": -132.0691615906219,
        "alt_km": 35784.99109862667,
        "timestamp": "2025-12-06T16:45:42.394366+00:00",
        "meta_object_name": "DIRECTV 14",
        "meta_object_id": "2014-078B",
        "meta_epoch": "2025-12-06T05:36:16.605792",
        "meta_mean_motion": 1.00270123,
        "meta_eccentricity": 3.784e-05,
        "meta_inclination": 0.0178,
        "meta_ra_of_asc_node": 334.1138,
        "meta_arg_of_pericenter": 244.1882,
        "meta_mean_anomaly": 201.8264,
        "meta_ephemeris_type": 0,
        "meta_classification_type": "U",
        "meta_norad_cat_id": 40333,
        "meta_element_set_no": 999,
        "meta_rev_at_epoch": 4010,
        "meta_bstar": 0,
        "meta_mean_motion_dot": -1.17e-06,
        "meta_mean_motion_ddot": 0,
        "tle_line1": "1 40333U 14078B   25340.23352553 -.00000117  00000+0  00000+0 0  9993",
        "tle_line2": "2 40333   0.0178 334.1138 0000378 244.1882 201.8264  1.00270123 40105"
      },
      "geometry": {
        "type": "Point",
        "coordinates": [
          -132.0691615906219,
          -0.041381199411336014
        ]
      }
    },
    {
      "type": "Feature",
      "properties": {
        "norad_id": 40663,
        "name": "DIRECTV 15",
        "group": "intelsat",
        "lat": -0.0028346444744757684,
        "lon": -135.716874169069,
        "alt_km": 35784.5072034838,
        "timestamp": "2025-12-06T16:45:42.394378+00:00",
        "meta_object_name": "DIRECTV 15",
        "meta_object_id": "2015-026A",
        "meta_epoch": "2025-12-06T00:16:38.669952",
        "meta_mean_motion": 1.00270129,
        "meta_eccentricity": 4.885e-05,
        "meta_inclination": 0.0402,
        "meta_ra_of_asc_node": 82.5652,
        "meta_arg_of_pericenter": 148.8434,
        "meta_mean_anomaly": 104.9477,
        "meta_ephemeris_type": 0,
        "meta_classification_type": "U",
        "meta_norad_cat_id": 40663,
        "meta_element_set_no": 999,
        "meta_rev_at_epoch": 3852,
        "meta_bstar": 0,
        "meta_mean_motion_dot": -9.4e-07,
        "meta_mean_motion_ddot": 0,
        "tle_line1": "1 40663U 15026A   25340.01155868 -.00000094  00000+0  00000+0 0  9993",
        "tle_line2": "2 40663   0.0402  82.5652 0000488 148.8434 104.9477  1.00270129 38529"
      },
      "geometry": {
        "type": "Point",
        "coordinates": [
          -135.716874169069,
          -0.0028346444744757684
        ]
      }
    },
    {
      "type": "Feature",
      "properties": {
        "norad_id": 40664,
        "name": "SKY MEXICO-1",
        "group": "intelsat",
        "lat": -0.0273282659341666,
        "lon": -111.6329168451995,
        "alt_km": 35775.441559149986,
        "timestamp": "2025-12-06T16:45:42.394389+00:00",
        "meta_object_name": "SKY MEXICO-1",
        "meta_object_id": "2015-026B",
        "meta_epoch": "2025-12-06T06:26:31.088832",
        "meta_mean_motion": 1.00269786,
        "meta_eccentricity": 0.0002873,
        "meta_inclination": 0.0126,
        "meta_ra_of_asc_node": 24.8156,
        "meta_arg_of_pericenter": 246.1839,
        "meta_mean_anomaly": 182.1735,
        "meta_ephemeris_type": 0,
        "meta_classification_type": "U",
        "meta_norad_cat_id": 40664,
        "meta_element_set_no": 999,
        "meta_rev_at_epoch": 3852,
        "meta_bstar": 0,
        "meta_mean_motion_dot": -2.26e-06,
        "meta_mean_motion_ddot": 0,
        "tle_line1": "1 40664U 15026B   25340.26841538 -.00000226  00000+0  00000+0 0  9994",
        "tle_line2": "2 40664   0.0126  24.8156 0002873 246.1839 182.1735  1.00269786 38524"
      },
      "geometry": {
        "type": "Point",
        "coordinates": [
          -111.6329168451995,
          -0.0273282659341666
        ]
      }
    },
    {
      "type": "Feature",
      "properties": {
        "norad_id": 40874,
        "name": "INTELSAT 34 (IS-34)",
        "group": "intelsat",
        "lat": -0.03159349693900263,
        "lon": -88.34479612749021,
        "alt_km": 35786.253864950115,
        "timestamp": "2025-12-06T16:45:42.394401+00:00",
        "meta_object_name": "INTELSAT 34 (IS-34)",
        "meta_object_id": "2015-039A",
        "meta_epoch": "2025-12-05T20:16:49.698624",
        "meta_mean_motion": 1.00271506,
        "meta_eccentricity": 5.383e-05,
        "meta_inclination": 0.0129,
        "meta_ra_of_asc_node": 325.8778,
        "meta_arg_of_pericenter": 215.7789,
        "meta_mean_anomaly": 141.944,
        "meta_ephemeris_type": 0,
        "meta_classification_type": "U",
        "meta_norad_cat_id": 40874,
        "meta_element_set_no": 999,
        "meta_rev_at_epoch": 3768,
        "meta_bstar": 0,
        "meta_mean_motion_dot": -2.76e-06,
        "meta_mean_motion_ddot": 0,
        "tle_line1": "1 40874U 15039A   25339.84501966 -.00000276  00000+0  00000+0 0  9996",
        "tle_line2": "2 40874   0.0129 325.8778 0000538 215.7789 141.9440  1.00271506 37681"
      },
      "geometry": {
        "type": "Point",
        "coordinates": [
          -88.34479612749021,
          -0.03159349693900263
        ]
      }
    }
  ]
}